PERSEUS-M1              
1 40039U 14033AF  26169.77562578  .00001322  00000+0  12433-3 0  9991
2 40039  97.9640 113.9333 0010197 295.2954  64.7209 14.95634843650871
POLYITAN-1              
1 40042U 14033AJ  26169.61855687  .00015200  00000+0  47423-3 0  9991
2 40042  98.0940 196.0151 0008724 137.4054 222.7864 15.33297714653816
TIGRISAT                
1 40043U 14033AK  26169.93495336  .00001540  00000+0  18213-3 0  9995
2 40043  97.7832 319.9063 0050540  69.6369 291.0266 14.85167819645880
AEROCUBE 6A             
1 40045U 14033AM  26169.42618860  .00004013  00000+0  33873-3 0  9997
2 40045  97.7249 336.3614 0038811  13.8936 346.3344 14.98119366646809
AEROCUBE 6B             
1 40046U 14033AN  26169.69421830  .00003955  00000+0  32166-3 0  9994
2 40046  97.7248 336.4203 0038204   4.1889 355.9647 14.99581827646987
CANX-4                  
1 40055U 14034C   26169.90820712  .00000689  00000+0  95634-4 0  9992
2 40055  98.3120  45.2845 0013039  11.6457 348.5053 14.81267198644781
CANX-5                  
1 40056U 14034D   26169.90662027  .00000701  00000+0  97213-4 0  9996
2 40056  98.3121  45.3265 0013042  11.8778 348.2739 14.81284514635590
UKUBE-1                 
1 40074U 14037F   26169.95322852  .00007098  00000+0  39988-3 0  9993
2 40074  98.4237 173.4107 0002723 129.5212 230.6257 15.13577240648827
BRITE-PL2 (HEWELIUSZ)   
1 40119U 14049B   26169.77913407  .00001598  00000+0  15283-3 0  9999
2 40119  97.9100 281.7913 0015333 103.7702 256.5226 14.94598146641683
AEROCUBE 5C             
1 40965U 15058B   26169.51187757  .00001689  00000+0  15833-3 0  9994
2 40965  64.7674 258.4697 0130808  62.7526 298.6842 14.91458402365853
AEROCUBE 7              
1 40966U 15058C   26169.90559376  .00002344  00000+0  19565-3 0  9993
2 40966  64.7614 239.4335 0120548  61.0155 300.2980 14.95733634366217
FOX-1A (AO-85)          
1 40967U 15058D   26169.69405078  .00001823  00000+0  17186-3 0  9997
2 40967  64.7758 274.3012 0130533  56.0068 305.3365 14.90975407113796
SINOD-D 1               
1 40968U 15058E   26169.95019331  .00002386  00000+0  19852-3 0  9997
2 40968  64.7748 253.3918 0119158  52.3768 308.8090 14.95914276116927
SNAP-3 ALICE            
1 40970U 15058G   26169.77619797  .00107767  00000+0  12677-2 0  9998
2 40970  64.7501  98.4383 0027811  11.8686 348.3109 15.60380771117138
LMRST-SAT               
1 40971U 15058H   26169.31428060  .00001659  00000+0  15881-3 0  9994
2 40971  64.7763 271.8213 0132146  58.1750 303.2148 14.90593890113726
SNAP-3 EDDIE            
1 40972U 15058J   26169.89302044  .00102950  00000+0  11527-2 0  9999
2 40972  64.7422  88.7458 0027398  15.7289 344.4703 15.61690671119299
PROPCUBE 3              
1 40973U 15058K   26169.94944041  .00001993  00000+0  17375-3 0  9998
2 40973  64.7680 247.0301 0124135  59.2115 302.1149 14.94264576115063
BISONSAT                
1 40974U 15058L   26169.28639916  .00009843  00000+0  47758-3 0  9998
2 40974  64.7580 170.0907 0079142  46.8172 313.9529 15.16210467115788
SNAP-3 JIMI             
1 40975U 15058M   26169.25429956  .00003453  00000+0  24340-3 0  9990
2 40975  64.7633 216.3962 0106227  54.9329 306.1695 15.02305085114381
PROPCUBE 1 (FLORA)      
1 40976U 15058N   26169.94177745  .00001680  00000+0  16684-3 0  9995
2 40976  64.7755 289.7981 0130837  60.2370 301.1682 14.89228366116521
SINOD-D 3               
1 40977U 15058P   26169.71366074  .00002451  00000+0  21385-3 0  9997
2 40977  64.7729 271.0526 0119344  57.5326 303.7259 14.94023737114989
HORYU-4                 
1 41340U 16012D   26169.93743818  .00413406  63815-4  88398-3 0  9993
2 41340  30.9845  66.1629 0006291 284.4637  75.5327 15.97357196571099
RAVAN                   
1 41849U 16067B   26169.20219458  .00039399  00000+0  59216-3 0  9999
2 41849  97.9884  58.8909 0004242  28.9137 331.2350 15.54764284527854
CELTEE 1                
1 41850U 16067C   26169.12892573  .00003910  00000+0  18683-3 0  9990
2 41850  98.0668  35.7600 0000980 126.8812 233.2511 15.19689358526020
OPTICUBE 04             
1 41851U 16067D   26169.53737634  .00001956  00000+0  12559-3 0  9996
2 41851  98.0698  21.8916 0016939 111.3354 248.9683 15.09664347525371
AEROCUBE 8D             
1 41852U 16067E   26169.59967922  .00005942  00000+0  24560-3 0  9992
2 41852  98.0674  39.8781 0004791 119.8253 240.3459 15.24413704526283
AEROCUBE 8C             
1 41853U 16067F   26169.88695467  .00005704  00000+0  23408-3 0  9993
2 41853  98.0544  37.4122 0006529  64.3507 295.8402 15.24665297526324
CORVUS BC2              
1 42846U 17042X   26169.92203157  .00003039  00000+0  21041-3 0  9996
2 42846  97.4074 331.2038 0014481 105.0492 255.2340 15.06307766487322
CORVUS BC1              
1 42847U 17042Y   26169.91644436  .00002650  00000+0  18322-3 0  9991
2 42847  97.4108 332.0139 0013470  84.0465 276.2298 15.06476405487350
MAKERSAT 0              
1 43016U 17073D   26169.94333054  .00013439  00000+0  36589-3 0  9990
2 43016  97.4613  52.4756 0105012 266.6189  92.3036 15.32145298466731
